[{"OBJECT_NAME":"IRIDIUM 121","OBJECT_ID":"2017-039K","EPOCH":"2026-03-09T22:57:50.967360","MEAN_MOTION":14.34217682,"ECCENTRICITY":0.00021772,"INCLINATION":86.3973,"RA_OF_ASC_NODE":35.125,"ARG_OF_PERICENTER":87.8477,"MEAN_ANOMALY":272.2968,"EPHEMERIS_TYPE":0,"CLASSIFICATION_TYPE":"U","NORAD_CAT_ID":42812,"ELEMENT_SET_NO":999,"REV_AT_EPOCH":45560,"BSTAR":5.919812e-6,"MEAN_MOTION_DOT":3.6e-7,"MEAN_MOTION_DDOT":0},{"OBJECT_NAME":"FENGYUN 1C DEB","OBJECT_ID":"1999-025CLW","EPOCH":"2026-03-09T15:39:27.079200","MEAN_MOTION":14.4606095,"ECCENTRICITY":0.0100815,"INCLINATION":99.1124,"RA_OF_ASC_NODE":222.4395,"ARG_OF_PERICENTER":309.0014,"MEAN_ANOMALY":111.0801,"EPHEMERIS_TYPE":0,"CLASSIFICATION_TYPE":"U","NORAD_CAT_ID":31919,"ELEMENT_SET_NO":999,"REV_AT_EPOCH":98337,"BSTAR":0.00038432,"MEAN_MOTION_DOT":1.404e-5,"MEAN_MOTION_DDOT":0}]
